IRIDIUM 155             
1 43573U 18061E   26016.22503011  .00000011  00000+0 -30946-5 0  9996
2 43573  86.3986 120.2321 0002271  94.8687 265.2768 14.34217429391577
IRIDIUM 154             
1 43574U 18061F   26016.20600162 -.00000002  00000+0 -76439-5 0  9998
2 43574  86.3996 120.3665 0001965  95.7068 264.4352 14.34217350391622
IRIDIUM 163             
1 43575U 18061G   26016.25674223  .00000113  00000+0  33205-4 0  9997
2 43575  86.3990 120.2653 0002150 100.4995 259.6443 14.34217365391604
IRIDIUM 156             
1 43576U 18061H   26016.23137214  .00000015  00000+0 -15490-5 0  9999
2 43576  86.3988 120.2827 0002163  93.0216 267.1227 14.34217410391595
IRIDIUM 164             
1 43577U 18061J   26016.21234375 -.00000002  00000+0 -79523-5 0  9998
2 43577  86.3991 120.3288 0001837  94.5324 265.6082 14.34217427391630
IRIDIUM 159             
1 43578U 18061K   26016.25039936  .00000011  00000+0 -32329-5 0  9991
2 43578  86.3989 120.2528 0001909 100.5408 259.6003 14.34217459391603
IRIDIUM 180             
1 43922U 19002A   26016.18012702  .00000031  00000+0  40817-5 0  9996
2 43922  86.3936  57.1368 0002132  96.6777 263.4661 14.34217650367206
IRIDIUM 176             
1 43923U 19002B   26016.18323613  .00000643  00000+0  98034-4 0  9995
2 43923  86.6057  57.1010 0002579  94.4386 265.7126 14.72246041376888
IRIDIUM 168             
1 43924U 19002C   26016.17378308  .00000103  00000+0  29602-4 0  9992
2 43924  86.3930  57.2122 0002234  93.5644 266.5808 14.34216833367189
IRIDIUM 173             
1 43925U 19002D   26016.16109741  .00000053  00000+0  11738-4 0  9990
2 43925  86.3933  57.1126 0002338  96.2445 263.9018 14.34216211367162
IRIDIUM 169             
1 43926U 19002E   26016.20333452  .00000247  00000+0  74083-4 0  9991
2 43926  86.4207  88.7555 0003202  95.8609 264.2954 14.38609407368376
IRIDIUM 172             
1 43927U 19002F   26016.15475667  .00000056  00000+0  12838-4 0  9999
2 43927  86.3934  57.1229 0002078  97.6773 262.4659 14.34217261367171
IRIDIUM 175             
1 43928U 19002G   26015.97464044  .00000684  00000+0  10448-3 0  9997
2 43928  86.1511 357.6624 0002399  61.3006 298.8451 14.72252685376849
IRIDIUM 171             
1 43929U 19002H   26016.20549837 -.00000058  00000+0 -27849-4 0  9990
2 43929  86.3936  57.3910 0002189  86.7870 273.3576 14.34217021367177
IRIDIUM 170             
1 43930U 19002J   26016.18937566  .00000303  00000+0  44165-4 0  9990
2 43930  86.6056  57.1019 0002309  89.1115 271.0367 14.72254383376892
IRIDIUM 167             
1 43931U 19002K   26016.05961830  .00000012  00000+0 -27534-5 0  9998
2 43931  86.3928  57.1834 0002375  85.4742 274.6726 14.34217610367158
IRIDIUM 181             
1 56726U 23068S   26016.27508966  .00000298  00000+0  82629-4 0  9992
2 56726  86.4529 120.3066 0001763  93.7681 266.3721 14.43310307140526
IRIDIUM 177             
1 56727U 23068T   26016.08376920  .00000845  00000+0  10774-3 0  9994
2 56727  86.1938  41.0116 0002320  89.9224 270.2263 14.80229286143864
IRIDIUM 174             
1 56728U 23068U   26016.24498495  .00000724  00000+0  11093-3 0  9996
2 56728  86.6062  57.2107 0002285  92.6777 267.4702 14.72249135143661
IRIDIUM 178             
1 56729U 23068V   26016.20812487  .00000903  00000+0  11542-3 0  9992
2 56729  86.6524  88.8976 0002305  84.1416 276.0068 14.80238017143889
IRIDIUM 179             
1 56730U 23068W   26016.20270315  .00000871  00000+0  11126-3 0  9994
2 56730  86.6775  97.4297 0002436  88.4706 271.6794 14.80224121143883
